#aV2012 12 13  0  0  0.00000000     288 DD+AD WGS84 FIT  NGA
## 1718 345600.00000000   300.00000000 56274 0.0000000000000
+   31     1  2  3  4  5  6  7  8  9 10 11 12 13 14 15 16 17
+         18 19 20 21 22 23 24 25 26 28 29 30 31 32  0  0  0
+          0  0  0  0  0  0  0  0  0  0  0  0  0  0  0  0  0
+          0  0  0  0  0  0  0  0  0  0  0  0  0  0  0  0  0
+          0  0  0  0  0  0  0  0  0  0  0  0  0  0  0  0  0
++         2  2  2  2  2  2  2  2  2  2  2  2  2  2  2  2  2
++         2  2  2  2  2  2  2  2  2  2  2  2  2  2  2  0  0
++         0  0  0  0  0  0  0  0  0  0  0  0  0  0  0  0  0
++         0  0  0  0  0  0  0  0  0  0  0  0  0  0  0  0  0
++         0  0  0  0  0  0  0  0  0  0  0  0  0  0  0  0  0
%c cc cc ccc ccc cccc cccc cccc cccc ccccc ccccc ccccc ccccc
%c cc cc ccc ccc cccc cccc cccc cccc ccccc ccccc ccccc ccccc
%f  0.0000000  0.000000000  0.00000000000  0.000000000000000
%f  0.0000000  0.000000000  0.00000000000  0.000000000000000
%i    0    0    0    0      0      0      0      0         0
%i    0    0    0    0      0      0      0      0         0
/*      NGA, ST. LOUIS,MO.                                  
/*   EPHEMERIS COMPUTED FROM  1 DAYS OF DATA
/*   EPOCHA SMOOTHER  
/* CCCCCCCCCCCCCCCCCCCCCCCCCCCCCCCCCCCCCCCCCCCCCCCCCCCCCCCCC
*  2012 12 13  4 30  0.00000000                                                 
P  1 -19581.733571 -14073.107263 -11228.378750    287.232889                    
V  1  14293.669470   1773.291429 -27145.962348      0.020431                    
P  2   -761.800355  16047.518195  21355.768881    411.487774                    
V  2 -25849.364218  -7006.635615   3862.529030      0.010019                    
P  3   4506.306738 -22264.735645 -14070.083355    140.920477                    
V  3  12962.185749 -11655.992807  23669.074196      0.050225                    
P  4 -17299.894555   8676.107598  18035.770658     73.617635                    
V  4 -21950.350866  -8416.765484 -16455.041671      0.111632                    
P  5   2176.439798  25831.471420   5393.944059   -372.456723                    
V  5  -4712.530709  -5997.203245  30597.368059     -0.022976                    
P  6  11325.395213 -21928.466521  -9265.029647    426.169529                    
V  6  10740.336743  -6429.832655  28381.218058     -0.129216                    
P  7 -25821.356468  -6177.063833  -2938.668113    156.443610                    
V  7  -2929.457136  -3137.333068  31603.473450      0.044409                    
P  8 -22644.131135    457.923760 -14247.427439      3.449592                    
V  8 -16224.146243  -7777.743686  24787.839639      0.003552                    
P  9  11718.031051  16016.533493 -18156.856851    206.252924                    
V  9 -21369.607346  -5129.258785 -18937.044197      0.026272                    
P 10 -10688.352048  14888.299412  18797.059724    -61.989663                    
V 10  -7032.565282 -23698.519356  14967.394712     -0.015209                    
P 11 -15026.971252 -14147.552186 -17286.819727   -332.709486                    
V 11  21345.009929  -2430.038847 -16694.378281     -0.038171                    
P 12  11627.440902  21522.373607  10567.164057    106.590494                    
V 12    996.817220  13423.577906 -28200.054516      0.020229                    
P 13 -19247.988037   -416.046604  18210.911217    160.569722                    
V 13  17718.425527 -15180.804493  18137.401617     -0.028422                    
P 14  21912.155656 -14159.024717  -4367.863991    218.184978                    
V 14  -2956.045967   5549.055271 -31549.980245      0.005484                    
P 15   4848.846519  16130.051309 -20496.666646   -102.068069                    
V 15 -19336.964235  17592.506598   9519.252282     -0.010358                    
P 16   -950.591865 -25746.040895   5696.659312   -250.744158                    
V 16   3601.041645   6744.717026  31357.957710     -0.004540                    
P 17 -21208.036058  15343.768859  -3437.783140     69.884064                    
V 17   1581.759483  -5232.362475 -31595.685209     -0.035552                    
P 18  16320.370321   2590.360456 -20468.944252    229.139361                    
V 18   5309.343718  26409.478457   7088.278929      0.018531                    
P 19   -930.665758 -17179.198032 -20199.308225   -330.447170                    
V 19  20899.209949 -14824.394344  12085.323654     -0.033630                    
P 20 -14054.887693 -19769.839497  10734.248851     76.289155                    
V 20   -704.040531 -14286.601114 -26732.645414      0.012632                    
P 21  25897.938981   3422.445994  -5683.503540   -268.005306                    
V 21   6521.769659   5366.219728  29614.364420     -0.023547                    
P 22  12410.992853 -12355.732653 -19751.405984    153.289997                    
V 22   7149.963868  24678.940248 -10973.025441      0.008496                    
P 23 -11582.374256 -10105.541904  21734.901754    134.611540                    
V 23  20215.650582 -18568.918382   1769.411565     -0.038289                    
P 24  16596.813448  15177.298758 -14139.761836      2.449888                    
V 24 -17847.093475  -2944.997692 -24088.392390     -0.006496                    
P 25  15692.619857  10537.700380  18651.879290     56.162289                    
V 25   4380.082698  23331.783206 -16762.259990      0.021906                    
P 26  -7955.761937  19909.725125 -16063.954910   -176.849376                    
V 26 -16179.742752  10740.119990  22542.333744      0.135235                    
P 28 -12984.790377   7840.514729 -21201.108969    213.459432                    
V 28  -5618.202307 -27708.016102  -6829.852451      0.036718                    
P 29  18493.920957   1516.161964  19041.487632    386.878816                    
V 29 -17407.557593  16675.749341  15657.892252      0.039624                    
P 30   4093.338314 -21009.375857  15386.417229   -286.281032                    
V 30   8504.799341  18397.897179  22328.584510      0.123296                    
P 31  13285.715676 -10340.863801  20801.248365    291.963067                    
V 31  24403.560839   8551.283355 -11187.168786      0.021050                    
P 32  -6807.770610 -25636.001758   4258.359914   -516.417250                    
V 32   1867.647509  -5463.367657 -30584.826030     -0.034639                    
EOF
